43257,IRIDIUM 150,2018,100.4,860.0,+,86.4,Active,1,LEO,USA,USA,Commercial/Government,Communications,Falcon,1 43257U 18030J   23245.66730851  .00000314  00000+0  10498-3 0  9997,2 43257  86.4027 356.1374 0002422  87.2906 272.8567 14.34220106284173,14.34220106,0.0002422,LEO
43258,IRIDIUM 143,2018,100.4,860.0,+,86.4,Active,1,LEO,USA,USA,Commercial/Government,Communications,Falcon,1 43258U 18030K   23246.06689017  .00000359  00000+0  12127-3 0  9990,2 43258  86.4030 356.0225 0002015  89.6683 270.4743 14.34219493284197,14.34219493,0.0002015,LEO
43478,IRIDIUM 161,2018,99.77,860.0,+,86.45,Active,1,LEO,USA,USA,Commercial/Government,Communications,Falcon,1 43478U 18047C   23246.04560964  .00000464  00000+0  13186-3 0  9992,2 43478  86.4557 154.0131 0002322  85.1844 274.9622 14.43271814278281,14.43271814,0.0002322,LEO
43479,IRIDIUM 152,2018,100.4,860.0,+,86.4,Active,1,LEO,USA,USA,Commercial/Government,Communications,Falcon,1 43479U 18047D   23245.83031212  .00000429  00000+0  14604-3 0  9995,2 43479  86.4026 153.9629 0002044  79.3556 280.7870 14.34215971276526,14.34215971,0.0002044,LEO
43480,IRIDIUM 147,2018,100.4,860.0,+,86.4,Active,1,LEO,USA,USA,Commercial/Government,Communications,Falcon,1 43480U 18047E   23245.83664983  .00000637  00000+0  22021-3 0  9997,2 43480  86.4026 153.9475 0002271  88.1061 272.0394 14.34217156276520,14.34217156,0.0002271,LEO
43481,IRIDIUM 110,2018,100.4,860.0,+,86.4,Active,1,LEO,USA,USA,Commercial/Government,Communications,Falcon,1 43481U 18047F   23245.77322436  .00000522  00000+0  17935-3 0  9996,2 43481  86.4027 154.0391 0002548  84.3625 275.7862 14.34218301276503,14.34218301,0.0002548,LEO
43482,IRIDIUM 162,2018,99.77,860.0,+,86.45,Active,1,LEO,USA,USA,Commercial/Government,Communications,Falcon,1 43482U 18047G   23246.03931853  .00000480  00000+0  13684-3 0  9996,2 43482  86.4547 153.9193 0002278  83.3203 276.8257 14.43282362278274,14.43282362,0.0002278,LEO
43569,IRIDIUM 160,2018,100.4,860.0,+,86.4,Active,1,LEO,USA,USA,Commercial/Government,Communications,Falcon,1 43569U 18061A   23245.92836572  .00000385  00000+0  13036-3 0  9992,2 43569  86.3965 122.3717 0001881  88.2528 271.8883 14.34220133267421,14.34220133,0.0001881,LEO
