<?xml version="1.0" encoding="UTF-8"?>
<ndm xmlns:xsi="http://www.w3.org/2001/XMLSchema-instance" xsi:noNamespaceSchemaLocation="https://sanaregistry.org/r/ndmxml_unqualified/ndmxml-2.0.0-master-2.0.xsd">
<omm id="CCSDS_OMM_VERS" version="2.0">
<header><CREATION_DATE/><ORIGINATOR/></header><body><segment><metadata><OBJECT_NAME>IRIDIUM 150</OBJECT_NAME><OBJECT_ID>2018-030J</OBJECT_ID><CENTER_NAME>EARTH</CENTER_NAME><REF_FRAME>TEME</REF_FRAME><TIME_SYSTEM>UTC</TIME_SYSTEM><MEAN_ELEMENT_THEORY>SGP4</MEAN_ELEMENT_THEORY></metadata><data><meanElements><EPOCH>2023-09-02T16:00:55.455264</EPOCH><MEAN_MOTION>14.34220106</MEAN_MOTION><ECCENTRICITY>.0002422</ECCENTRICITY><INCLINATION>86.4027</INCLINATION><RA_OF_ASC_NODE>356.1374</RA_OF_ASC_NODE><ARG_OF_PERICENTER>87.2906</ARG_OF_PERICENTER><MEAN_ANOMALY>272.8567</MEAN_ANOMALY></meanElements><tleParameters><EPHEMERIS_TYPE>0</EPHEMERIS_TYPE><CLASSIFICATION_TYPE>U</CLASSIFICATION_TYPE><NORAD_CAT_ID>43257</NORAD_CAT_ID><ELEMENT_SET_NO>999</ELEMENT_SET_NO><REV_AT_EPOCH>28417</REV_AT_EPOCH><BSTAR>.10498E-3</BSTAR><MEAN_MOTION_DOT>.314E-5</MEAN_MOTION_DOT><MEAN_MOTION_DDOT>0</MEAN_MOTION_DDOT></tleParameters></data></segment></body></omm>
<omm id="CCSDS_OMM_VERS" version="2.0">
<header><CREATION_DATE/><ORIGINATOR/></header><body><segment><metadata><OBJECT_NAME>IRIDIUM 143</OBJECT_NAME><OBJECT_ID>2018-030K</OBJECT_ID><CENTER_NAME>EARTH</CENTER_NAME><REF_FRAME>TEME</REF_FRAME><TIME_SYSTEM>UTC</TIME_SYSTEM><MEAN_ELEMENT_THEORY>SGP4</MEAN_ELEMENT_THEORY></metadata><data><meanElements><EPOCH>2023-09-03T01:36:19.310688</EPOCH><MEAN_MOTION>14.34219493</MEAN_MOTION><ECCENTRICITY>.0002015</ECCENTRICITY><INCLINATION>86.4030</INCLINATION><RA_OF_ASC_NODE>356.0225</RA_OF_ASC_NODE><ARG_OF_PERICENTER>89.6683</ARG_OF_PERICENTER><MEAN_ANOMALY>270.4743</MEAN_ANOMALY></meanElements><tleParameters><EPHEMERIS_TYPE>0</EPHEMERIS_TYPE><CLASSIFICATION_TYPE>U</CLASSIFICATION_TYPE><NORAD_CAT_ID>43258</NORAD_CAT_ID><ELEMENT_SET_NO>999</ELEMENT_SET_NO><REV_AT_EPOCH>28419</REV_AT_EPOCH><BSTAR>.12127E-3</BSTAR><MEAN_MOTION_DOT>.359E-5</MEAN_MOTION_DOT><MEAN_MOTION_DDOT>0</MEAN_MOTION_DDOT></tleParameters></data></segment></body></omm>
<omm id="CCSDS_OMM_VERS" version="2.0">
<header><CREATION_DATE/><ORIGINATOR/></header><body><segment><metadata><OBJECT_NAME>IRIDIUM 161</OBJECT_NAME><OBJECT_ID>2018-047C</OBJECT_ID><CENTER_NAME>EARTH</CENTER_NAME><REF_FRAME>TEME</REF_FRAME><TIME_SYSTEM>UTC</TIME_SYSTEM><MEAN_ELEMENT_THEORY>SGP4</MEAN_ELEMENT_THEORY></metadata><data><meanElements><EPOCH>2023-09-03T01:05:40.672896</EPOCH><MEAN_MOTION>14.43271814</MEAN_MOTION><ECCENTRICITY>.0002322</ECCENTRICITY><INCLINATION>86.4557</INCLINATION><RA_OF_ASC_NODE>154.0131</RA_OF_ASC_NODE><ARG_OF_PERICENTER>85.1844</ARG_OF_PERICENTER><MEAN_ANOMALY>274.9622</MEAN_ANOMALY></meanElements><tleParameters><EPHEMERIS_TYPE>0</EPHEMERIS_TYPE><CLASSIFICATION_TYPE>U</CLASSIFICATION_TYPE><NORAD_CAT_ID>43478</NORAD_CAT_ID><ELEMENT_SET_NO>999</ELEMENT_SET_NO><REV_AT_EPOCH>27828</REV_AT_EPOCH><BSTAR>.13186E-3</BSTAR><MEAN_MOTION_DOT>.464E-5</MEAN_MOTION_DOT><MEAN_MOTION_DDOT>0</MEAN_MOTION_DDOT></tleParameters></data></segment></body></omm>
<omm id="CCSDS_OMM_VERS" version="2.0">
<header><CREATION_DATE/><ORIGINATOR/></header><body><segment><metadata><OBJECT_NAME>IRIDIUM 152</OBJECT_NAME><OBJECT_ID>2018-047D</OBJECT_ID><CENTER_NAME>EARTH</CENTER_NAME><REF_FRAME>TEME</REF_FRAME><TIME_SYSTEM>UTC</TIME_SYSTEM><MEAN_ELEMENT_THEORY>SGP4</MEAN_ELEMENT_THEORY></metadata><data><meanElements><EPOCH>2023-09-02T19:55:38.967168</EPOCH><MEAN_MOTION>14.34215971</MEAN_MOTION><ECCENTRICITY>.0002044</ECCENTRICITY><INCLINATION>86.4026</INCLINATION><RA_OF_ASC_NODE>153.9629</RA_OF_ASC_NODE><ARG_OF_PERICENTER>79.3556</ARG_OF_PERICENTER><MEAN_ANOMALY>280.7870</MEAN_ANOMALY></meanElements><tleParameters><EPHEMERIS_TYPE>0</EPHEMERIS_TYPE><CLASSIFICATION_TYPE>U</CLASSIFICATION_TYPE><NORAD_CAT_ID>43479</NORAD_CAT_ID><ELEMENT_SET_NO>999</ELEMENT_SET_NO><REV_AT_EPOCH>27652</REV_AT_EPOCH><BSTAR>.14604E-3</BSTAR><MEAN_MOTION_DOT>.429E-5</MEAN_MOTION_DOT><MEAN_MOTION_DDOT>0</MEAN_MOTION_DDOT></tleParameters></data></segment></body></omm>
<omm id="CCSDS_OMM_VERS" version="2.0">
<header><CREATION_DATE/><ORIGINATOR/></header><body><segment><metadata><OBJECT_NAME>IRIDIUM 147</OBJECT_NAME><OBJECT_ID>2018-047E</OBJECT_ID><CENTER_NAME>EARTH</CENTER_NAME><REF_FRAME>TEME</REF_FRAME><TIME_SYSTEM>UTC</TIME_SYSTEM><MEAN_ELEMENT_THEORY>SGP4</MEAN_ELEMENT_THEORY></metadata><data><meanElements><EPOCH>2023-09-02T20:04:46.545312</EPOCH><MEAN_MOTION>14.34217156</MEAN_MOTION><ECCENTRICITY>.0002271</ECCENTRICITY><INCLINATION>86.4026</INCLINATION><RA_OF_ASC_NODE>153.9475</RA_OF_ASC_NODE><ARG_OF_PERICENTER>88.1061</ARG_OF_PERICENTER><MEAN_ANOMALY>272.0394</MEAN_ANOMALY></meanElements><tleParameters><EPHEMERIS_TYPE>0</EPHEMERIS_TYPE><CLASSIFICATION_TYPE>U</CLASSIFICATION_TYPE><NORAD_CAT_ID>43480</NORAD_CAT_ID><ELEMENT_SET_NO>999</ELEMENT_SET_NO><REV_AT_EPOCH>27652</REV_AT_EPOCH><BSTAR>.22021E-3</BSTAR><MEAN_MOTION_DOT>.637E-5</MEAN_MOTION_DOT><MEAN_MOTION_DDOT>0</MEAN_MOTION_DDOT></tleParameters></data></segment></body></omm>
<omm id="CCSDS_OMM_VERS" version="2.0">
<header><CREATION_DATE/><ORIGINATOR/></header><body><segment><metadata><OBJECT_NAME>IRIDIUM 110</OBJECT_NAME><OBJECT_ID>2018-047F</OBJECT_ID><CENTER_NAME>EARTH</CENTER_NAME><REF_FRAME>TEME</REF_FRAME><TIME_SYSTEM>UTC</TIME_SYSTEM><MEAN_ELEMENT_THEORY>SGP4</MEAN_ELEMENT_THEORY></metadata><data><meanElements><EPOCH>2023-09-02T18:33:26.584704</EPOCH><MEAN_MOTION>14.34218301</MEAN_MOTION><ECCENTRICITY>.0002548</ECCENTRICITY><INCLINATION>86.4027</INCLINATION><RA_OF_ASC_NODE>154.0391</RA_OF_ASC_NODE><ARG_OF_PERICENTER>84.3625</ARG_OF_PERICENTER><MEAN_ANOMALY>275.7862</MEAN_ANOMALY></meanElements><tleParameters><EPHEMERIS_TYPE>0</EPHEMERIS_TYPE><CLASSIFICATION_TYPE>U</CLASSIFICATION_TYPE><NORAD_CAT_ID>43481</NORAD_CAT_ID><ELEMENT_SET_NO>999</ELEMENT_SET_NO><REV_AT_EPOCH>27650</REV_AT_EPOCH><BSTAR>.17935E-3</BSTAR><MEAN_MOTION_DOT>.522E-5</MEAN_MOTION_DOT><MEAN_MOTION_DDOT>0</MEAN_MOTION_DDOT></tleParameters></data></segment></body></omm>
<omm id="CCSDS_OMM_VERS" version="2.0">
<header><CREATION_DATE/><ORIGINATOR/></header><body><segment><metadata><OBJECT_NAME>IRIDIUM 162</OBJECT_NAME><OBJECT_ID>2018-047G</OBJECT_ID><CENTER_NAME>EARTH</CENTER_NAME><REF_FRAME>TEME</REF_FRAME><TIME_SYSTEM>UTC</TIME_SYSTEM><MEAN_ELEMENT_THEORY>SGP4</MEAN_ELEMENT_THEORY></metadata><data><meanElements><EPOCH>2023-09-03T00:56:37.120992</EPOCH><MEAN_MOTION>14.43282362</MEAN_MOTION><ECCENTRICITY>.0002278</ECCENTRICITY><INCLINATION>86.4547</INCLINATION><RA_OF_ASC_NODE>153.9193</RA_OF_ASC_NODE><ARG_OF_PERICENTER>83.3203</ARG_OF_PERICENTER><MEAN_ANOMALY>276.8257</MEAN_ANOMALY></meanElements><tleParameters><EPHEMERIS_TYPE>0</EPHEMERIS_TYPE><CLASSIFICATION_TYPE>U</CLASSIFICATION_TYPE><NORAD_CAT_ID>43482</NORAD_CAT_ID><ELEMENT_SET_NO>999</ELEMENT_SET_NO><REV_AT_EPOCH>27827</REV_AT_EPOCH><BSTAR>.13684E-3</BSTAR><MEAN_MOTION_DOT>.48E-5</MEAN_MOTION_DOT><MEAN_MOTION_DDOT>0</MEAN_MOTION_DDOT></tleParameters></data></segment></body></omm>
<omm id="CCSDS_OMM_VERS" version="2.0">
<header><CREATION_DATE/><ORIGINATOR/></header><body><segment><metadata><OBJECT_NAME>IRIDIUM 160</OBJECT_NAME><OBJECT_ID>2018-061A</OBJECT_ID><CENTER_NAME>EARTH</CENTER_NAME><REF_FRAME>TEME</REF_FRAME><TIME_SYSTEM>UTC</TIME_SYSTEM><MEAN_ELEMENT_THEORY>SGP4</MEAN_ELEMENT_THEORY></metadata><data><meanElements><EPOCH>2023-09-02T22:16:50.798208</EPOCH><MEAN_MOTION>14.34220133</MEAN_MOTION><ECCENTRICITY>.0001881</ECCENTRICITY><INCLINATION>86.3965</INCLINATION><RA_OF_ASC_NODE>122.3717</RA_OF_ASC_NODE><ARG_OF_PERICENTER>88.2528</ARG_OF_PERICENTER><MEAN_ANOMALY>271.8883</MEAN_ANOMALY></meanElements><tleParameters><EPHEMERIS_TYPE>0</EPHEMERIS_TYPE><CLASSIFICATION_TYPE>U</CLASSIFICATION_TYPE><NORAD_CAT_ID>43569</NORAD_CAT_ID><ELEMENT_SET_NO>999</ELEMENT_SET_NO><REV_AT_EPOCH>26742</REV_AT_EPOCH><BSTAR>.13036E-3</BSTAR><MEAN_MOTION_DOT>.385E-5</MEAN_MOTION_DOT><MEAN_MOTION_DDOT>0</MEAN_MOTION_DDOT></tleParameters></data></segment></body></omm>

</ndm>
